{"type": "FeatureCollection", "features": [ {"type": "Feature", "properties": {"norad_id": 49810, "name": "GSAT0224 (GALILEO 28)", "group": "gnss", "lat": -16.75202888559811, "lon": -24.413821700981632, "alt_km": 23223.432392256214, "timestamp": "2025-12-10T11:33:53.629765+00:00", "meta": {"OBJECT_NAME": "GSAT0224 (GALILEO 28)", "OBJECT_ID": "2021-116B", "EPOCH": "2025-12-07T13:56:35.698272", "MEAN_MOTION": 1.7047563, "ECCENTRICITY": 0.00040182, "INCLINATION": 57.2213, "RA_OF_ASC_NODE": 346.8506, "ARG_OF_PERICENTER": 254.5241, "MEAN_ANOMALY": 105.0474, "EPHEMERIS_TYPE": 0, "CLASSIFICATION_TYPE": "U", "NORAD_CAT_ID": 49810, "ELEMENT_SET_NO": 999, "REV_AT_EPOCH": 2493, "BSTAR": 0, "MEAN_MOTION_DOT": -8.4e-07, "MEAN_MOTION_DDOT": 0}, "tle": {"line1": "1 49810U 21116B   25341.58096873 -.00000084  00000+0  00000+0 0  9995", "line2": "2 49810  57.2213 346.8506 0004018 254.5241 105.0474  1.70475630 24934"}}, "geometry": {"type": "Point", "coordinates": [-24.413821700981632, -16.75202888559811]}}, {"type": "Feature", "properties": {"norad_id": 52984, "name": "COSMOS 2557 (706K)", "group": "gnss", "lat": 10.904790551566828, "lon": -33.58418347409789, "alt_km": 19132.14678278464, "timestamp": "2025-12-10T11:33:53.629782+00:00", "meta": {"OBJECT_NAME": "COSMOS 2557 (706K)", "OBJECT_ID": "2022-075A", "EPOCH": "2025-12-07T04:21:00.419904", "MEAN_MOTION": 2.13101754, "ECCENTRICITY": 0.00137049, "INCLINATION": 64.4129, "RA_OF_ASC_NODE": 321.247, "ARG_OF_PERICENTER": 276.9, "MEAN_ANOMALY": 82.939, "EPHEMERIS_TYPE": 0, "CLASSIFICATION_TYPE": "U", "NORAD_CAT_ID": 52984, "ELEMENT_SET_NO": 999, "REV_AT_EPOCH": 2662, "BSTAR": 0, "MEAN_MOTION_DOT": -5.2e-07, "MEAN_MOTION_DDOT": 0}, "tle": {"line1": "1 52984U 22075A   25341.18125486 -.00000052  00000+0  00000+0 0  9990", "line2": "2 52984  64.4129 321.2470 0013704 276.9000  82.9390  2.13101754 26625"}}, "geometry": {"type": "Point", "coordinates": [-33.58418347409789, 10.904790551566828]}}, {"type": "Feature", "properties": {"norad_id": 54031, "name": "COSMOS 2559 (707K)", "group": "gnss", "lat": 26.122014068210955, "lon": 127.60573248504706, "alt_km": 19104.43990035823, "timestamp": "2025-12-10T11:33:53.629799+00:00", "meta": {"OBJECT_NAME": "COSMOS 2559 (707K)", "OBJECT_ID": "2022-130A", "EPOCH": "2025-12-09T08:19:17.567904", "MEAN_MOTION": 2.13101276, "ECCENTRICITY": 0.0011889, "INCLINATION": 64.3842, "RA_OF_ASC_NODE": 321.2605, "ARG_OF_PERICENTER": 192.5851, "MEAN_ANOMALY": 167.383, "EPHEMERIS_TYPE": 0, "CLASSIFICATION_TYPE": "U", "NORAD_CAT_ID": 54031, "ELEMENT_SET_NO": 999, "REV_AT_EPOCH": 2464, "BSTAR": 0, "MEAN_MOTION_DOT": -5.2e-07, "MEAN_MOTION_DDOT": 0}, "tle": {"line1": "1 54031U 22130A   25343.34673111 -.00000052  00000+0  00000+0 0  9990", "line2": "2 54031  64.3842 321.2605 0011889 192.5851 167.3830  2.13101276 24646"}}, "geometry": {"type": "Point", "coordinates": [127.60573248504706, 26.122014068210955]}}, {"type": "Feature", "properties": {"norad_id": 54377, "name": "COSMOS 2564 (761)", "group": "gnss", "lat": -64.72025077653343, "lon": 109.97107620386979, "alt_km": 19127.179171731786, "timestamp": "2025-12-10T11:33:53.629816+00:00", "meta": {"OBJECT_NAME": "COSMOS 2564 (761)", "OBJECT_ID": "2022-161A", "EPOCH": "2025-12-09T04:34:58.856736", "MEAN_MOTION": 2.13102019, "ECCENTRICITY": 0.00086439, "INCLINATION": 64.7379, "RA_OF_ASC_NODE": 199.0169, "ARG_OF_PERICENTER": 205.3114, "MEAN_ANOMALY": 154.7201, "EPHEMERIS_TYPE": 0, "CLASSIFICATION_TYPE": "U", "NORAD_CAT_ID": 54377, "ELEMENT_SET_NO": 999, "REV_AT_EPOCH": 2358, "BSTAR": 0, "MEAN_MOTION_DOT": 4.4e-07, "MEAN_MOTION_DDOT": 0}, "tle": {"line1": "1 54377U 22161A   25343.19095899  .00000044  00000+0  00000+0 0  9991", "line2": "2 54377  64.7379 199.0169 0008643 205.3114 154.7201  2.13102019 23583"}}, "geometry": {"type": "Point", "coordinates": [109.97107620386979, -64.72025077653343]}}, {"type": "Feature", "properties": {"norad_id": 55268, "name": "GPS BIII-6  (PRN 28)", "group": "gnss", "lat": -5.780423828811391, "lon": 151.874553886915, "alt_km": 20174.342999892327, "timestamp": "2025-12-10T11:33:53.629833+00:00", "meta": {"OBJECT_NAME": "GPS BIII-6  (PRN 28)", "OBJECT_ID": "2023-009A", "EPOCH": "2025-12-08T05:52:26.989248", "MEAN_MOTION": 2.00555991, "ECCENTRICITY": 0.0003615, "INCLINATION": 55.1046, "RA_OF_ASC_NODE": 156.0217, "ARG_OF_PERICENTER": 356.7859, "MEAN_ANOMALY": 180.9144, "EPHEMERIS_TYPE": 0, "CLASSIFICATION_TYPE": "U", "NORAD_CAT_ID": 55268, "ELEMENT_SET_NO": 999, "REV_AT_EPOCH": 2141, "BSTAR": 0, "MEAN_MOTION_DOT": 5.9e-07, "MEAN_MOTION_DDOT": 0}, "tle": {"line1": "1 55268U 23009A   25342.24475682  .00000059  00000+0  00000+0 0  9996", "line2": "2 55268  55.1046 156.0217 0003615 356.7859 180.9144  2.00555991 21410"}}, "geometry": {"type": "Point", "coordinates": [151.874553886915, -5.780423828811391]}}, {"type": "Feature", "properties": {"norad_id": 56564, "name": "BEIDOU-3 G4 (C62)", "group": "gnss", "lat": 0.7827653052491358, "lon": 52.965260422337224, "alt_km": 35793.08474127193, "timestamp": "2025-12-10T11:33:53.629853+00:00", "meta": {"OBJECT_NAME": "BEIDOU-3 G4 (C62)", "OBJECT_ID": "2023-066A", "EPOCH": "2025-12-10T04:27:25.280928", "MEAN_MOTION": 1.00271334, "ECCENTRICITY": 0.0002991, "INCLINATION": 0.8203, "RA_OF_ASC_NODE": 301.8596, "ARG_OF_PERICENTER": 234.7601, "MEAN_ANOMALY": 129.4673, "EPHEMERIS_TYPE": 0, "CLASSIFICATION_TYPE": "U", "NORAD_CAT_ID": 56564, "ELEMENT_SET_NO": 999, "REV_AT_EPOCH": 949, "BSTAR": 0, "MEAN_MOTION_DOT": -1.08e-06, "MEAN_MOTION_DDOT": 0}, "tle": {"line1": "1 56564U 23066A   25344.18570927 -.00000108  00000+0  00000+0 0  9998", "line2": "2 56564   0.8203 301.8596 0002991 234.7601 129.4673  1.00271334  9492"}}, "geometry": {"type": "Point", "coordinates": [52.965260422337224, 0.7827653052491358]}}, {"type": "Feature", "properties": {"norad_id": 56759, "name": "NVS-01 (IRNSS-1J)", "group": "gnss", "lat": 2.002775675110403, "lon": 22.44395292705046, "alt_km": 35807.323983605944, "timestamp": "2025-12-10T11:33:53.629874+00:00", "meta": {"OBJECT_NAME": "NVS-01 (IRNSS-1J)", "OBJECT_ID": "2023-076A", "EPOCH": "2025-12-09T21:02:13.005024", "MEAN_MOTION": 1.00264638, "ECCENTRICITY": 0.0008635, "INCLINATION": 2.6251, "RA_OF_ASC_NODE": 251.7031, "ARG_OF_PERICENTER": 8.5999, "MEAN_ANOMALY": 263.5331, "EPHEMERIS_TYPE": 0, "CLASSIFICATION_TYPE": "U", "NORAD_CAT_ID": 56759, "ELEMENT_SET_NO": 999, "REV_AT_EPOCH": 921, "BSTAR": 0, "MEAN_MOTION_DOT": -3.33e-06, "MEAN_MOTION_DDOT": 0}, "tle": {"line1": "1 56759U 23076A   25343.87653941 -.00000333  00000+0  00000+0 0  9998", "line2": "2 56759   2.6251 251.7031 0008635   8.5999 263.5331  1.00264638  9216"}}, "geometry": {"type": "Point", "coordinates": [22.44395292705046, 2.002775675110403]}}, {"type": "Feature", "properties": {"norad_id": 57517, "name": "COSMOS 2569 (703K)", "group": "gnss", "lat": -63.36665985063332, "lon": -33.94669518989452, "alt_km": 19112.710800009234, "timestamp": "2025-12-10T11:33:53.629894+00:00", "meta": {"OBJECT_NAME": "COSMOS 2569 (703K)", "OBJECT_ID": "2023-114A", "EPOCH": "2025-12-09T04:54:16.689312", "MEAN_MOTION": 2.13103889, "ECCENTRICITY": 0.0010394, "INCLINATION": 65.1923, "RA_OF_ASC_NODE": 79.033, "ARG_OF_PERICENTER": 287.0321, "MEAN_ANOMALY": 72.8717, "EPHEMERIS_TYPE": 0, "CLASSIFICATION_TYPE": "U", "NORAD_CAT_ID": 57517, "ELEMENT_SET_NO": 999, "REV_AT_EPOCH": 1821, "BSTAR": 0, "MEAN_MOTION_DOT": -1.4e-07, "MEAN_MOTION_DDOT": 0}, "tle": {"line1": "1 57517U 23114A   25343.20435983 -.00000014  00000+0  00000+0 0  9991", "line2": "2 57517  65.1923  79.0330 0010394 287.0321  72.8717  2.13103889 18214"}}, "geometry": {"type": "Point", "coordinates": [-33.94669518989452, -63.36665985063332]}}, {"type": "Feature", "properties": {"norad_id": 58654, "name": "BEIDOU-3 M28 (C50)", "group": "gnss", "lat": 40.22875237332925, "lon": -146.70720397568758, "alt_km": 21528.229336822056, "timestamp": "2025-12-10T11:33:53.629912+00:00", "meta": {"OBJECT_NAME": "BEIDOU-3 M28 (C50)", "OBJECT_ID": "2023-207A", "EPOCH": "2025-12-09T05:11:28.664736", "MEAN_MOTION": 1.86229641, "ECCENTRICITY": 0.0002291, "INCLINATION": 55.5815, "RA_OF_ASC_NODE": 68.7207, "ARG_OF_PERICENTER": 268.7348, "MEAN_ANOMALY": 91.2612, "EPHEMERIS_TYPE": 0, "CLASSIFICATION_TYPE": "U", "NORAD_CAT_ID": 58654, "ELEMENT_SET_NO": 999, "REV_AT_EPOCH": 1330, "BSTAR": 0, "MEAN_MOTION_DOT": -4.9e-07, "MEAN_MOTION_DDOT": 0}, "tle": {"line1": "1 58654U 23207A   25343.21630399 -.00000049  00000+0  00000+0 0  9994", "line2": "2 58654  55.5815  68.7207 0002291 268.7348  91.2612  1.86229641 13308"}}, "geometry": {"type": "Point", "coordinates": [-146.70720397568758, 40.22875237332925]}}, {"type": "Feature", "properties": {"norad_id": 58655, "name": "BEIDOU-3 M26 (C48)", "group": "gnss", "lat": -55.16921281587263, "lon": -31.614872003810905, "alt_km": 21523.76160207523, "timestamp": "2025-12-10T11:33:53.629929+00:00", "meta": {"OBJECT_NAME": "BEIDOU-3 M26 (C48)", "OBJECT_ID": "2023-207B", "EPOCH": "2025-12-09T13:13:20.106624", "MEAN_MOTION": 1.86231165, "ECCENTRICITY": 0.00037, "INCLINATION": 55.5839, "RA_OF_ASC_NODE": 68.6957, "ARG_OF_PERICENTER": 254.5617, "MEAN_ANOMALY": 105.42, "EPHEMERIS_TYPE": 0, "CLASSIFICATION_TYPE": "U", "NORAD_CAT_ID": 58655, "ELEMENT_SET_NO": 999, "REV_AT_EPOCH": 1329, "BSTAR": 0, "MEAN_MOTION_DOT": -5.1e-07, "MEAN_MOTION_DDOT": 0}, "tle": {"line1": "1 58655U 23207B   25343.55092716 -.00000051  00000+0  00000+0 0  9990", "line2": "2 58655  55.5839  68.6957 0003700 254.5617 105.4200  1.86231165 13297"}}, "geometry": {"type": "Point", "coordinates": [-31.614872003810905, -55.16921281587263]}}]}